CCSDS_OEM_VERS = 1.0
CREATION_DATE  = 2017-05-11T11:21:03
ORIGINATOR     = GMAT USER

META_START
OBJECT_NAME          = MOPSSat_alt_35785_km_RAAN_90_141
OBJECT_ID            = SatId
CENTER_NAME          = Earth
REF_FRAME            = EME2000
TIME_SYSTEM          = UTC
START_TIME           = 2017-01-01T00:00:00.000
USEABLE_START_TIME   = 2017-01-01T00:00:00.000
USEABLE_STOP_TIME    = 2017-01-02T00:00:00.000
STOP_TIME            = 2017-01-02T00:00:00.000
INTERPOLATION        = Lagrange
INTERPOLATION_DEGREE = 7 
META_STOP


                                                                                   

2017-01-01T09:19:10.000  -1.857944431532705e+04  -5.381520678402832e+04   6.487748056423137e+02   1.828322052701336e+00  -1.095512454007590e+00  -6.387155615042030e-02
2017-01-01T09:19:20.000  -1.856115908930398e+04  -5.382615609728660e+04   6.481360198911103e+02   1.828723134288886e+00  -1.094350241020969e+00  -6.388559347787488e-02
2017-01-01T09:19:30.000  -1.854286985486041e+04  -5.383709378859833e+04   6.474970938502146e+02   1.829123728634719e+00  -1.093188059760579e+00  -6.389961380350964e-02
2017-01-01T09:19:40.000  -1.852457661679646e+04  -5.384801985832345e+04   6.468580276871204e+02   1.829523835962329e+00  -1.092025910214787e+00  -6.391361713512096e-02
2017-01-01T09:19:50.000  -1.850627937993105e+04  -5.385893430680851e+04   6.462188215699753e+02   1.829923456494404e+00  -1.090863792373211e+00  -6.392760348047699e-02
2017-01-01T09:20:00.000  -1.848797814912362e+04  -5.386983713437465e+04   6.455794756683458e+02   1.830322590452390e+00  -1.089701706228076e+00  -6.394157284730266e-02
2017-01-01T09:20:10.000  -1.846967292921849e+04  -5.388072834135047e+04   6.449399901512688e+02   1.830721238057698e+00  -1.088539651770692e+00  -6.395552524332140e-02
2017-01-01T09:20:20.000  -1.845136372528645e+04  -5.389160792792943e+04   6.443003651956928e+02   1.831119399526490e+00  -1.087377629006759e+00  -6.396946067607318e-02
2017-01-01T09:20:30.000  -1.843305054233205e+04  -5.390247589434293e+04   6.436606009762527e+02   1.831517075076004e+00  -1.086215637937817e+00  -6.398337915313541e-02
2017-01-01T09:20:40.000  -1.841473338540245e+04  -5.391333224079573e+04   6.430206976690718e+02   1.831914264922196e+00  -1.085053678568146e+00  -6.399728068204087e-02
2017-01-01T09:20:50.000  -1.839641225916606e+04  -5.392417696771583e+04   6.423806554370427e+02   1.832310969288880e+00  -1.083891750878036e+00  -6.401116527059732e-02
2017-01-01T09:21:00.000  -1.837808716833281e+04  -5.393501007550517e+04   6.417404744445079e+02   1.832707188398611e+00  -1.082729854850451e+00  -6.402503292656837e-02
2017-01-01T09:21:10.000  -1.835975811755897e+04  -5.394583156459636e+04   6.411001548539356e+02   1.833102922474759e+00  -1.081567990464986e+00  -6.403888365774624e-02
2017-01-01T09:21:20.000  -1.834142511168399e+04  -5.395664143531090e+04   6.404596968341932e+02   1.833498171736313e+00  -1.080406157712915e+00  -6.405271747176992e-02
2017-01-01T09:21:30.000  -1.832308815555484e+04  -5.396743968796480e+04   6.398191005544122e+02   1.833892936401761e+00  -1.079244356586025e+00  -6.406653437626079e-02
2017-01-01T09:21:40.000  -1.830474725402582e+04  -5.397822632286810e+04   6.391783661839778e+02   1.834287216689060e+00  -1.078082587076609e+00  -6.408033437882170e-02
2017-01-01T09:21:50.000  -1.828640241213535e+04  -5.398900134022252e+04   6.385374938987105e+02   1.834681012811911e+00  -1.076920849188635e+00  -6.409411748690645e-02
2017-01-01T09:22:00.000  -1.826805363486805e+04  -5.399976474025988e+04   6.378964838725493e+02   1.835074324984804e+00  -1.075759142922709e+00  -6.410788370799662e-02
2017-01-01T09:22:10.000  -1.824970092724838e+04  -5.401051652318722e+04   6.372553362808254e+02   1.835467153421022e+00  -1.074597468281992e+00  -6.412163304953147e-02
2017-01-01T09:22:20.000  -1.823134429392654e+04  -5.402125668942973e+04   6.366140512857958e+02   1.835859498341509e+00  -1.073435825245994e+00  -6.413536551921852e-02
2017-01-01T09:22:30.000  -1.821298373959252e+04  -5.403198523938776e+04   6.359726290511084e+02   1.836251359966000e+00  -1.072274213796785e+00  -6.414908112472283e-02
2017-01-01T09:22:40.000  -1.819461926888263e+04  -5.404270217349204e+04   6.353310697385346e+02   1.836642738515033e+00  -1.071112633913069e+00  -6.416277987373771e-02
2017-01-01T09:22:50.000  -1.817625088661673e+04  -5.405340749206324e+04   6.346893735162590e+02   1.837033634204817e+00  -1.069951085585233e+00  -6.417646177380490e-02
2017-01-01T09:23:00.000  -1.815787859762227e+04  -5.406410119541660e+04   6.340475405527310e+02   1.837424047251060e+00  -1.068789568804170e+00  -6.419012683244868e-02
2017-01-01T09:23:10.000  -1.813950240673402e+04  -5.407478328386143e+04   6.334055710166566e+02   1.837813977868945e+00  -1.067628083561288e+00  -6.420377505717501e-02
2017-01-01T09:23:20.000  -1.812112231897135e+04  -5.408545375759975e+04   6.327634650831889e+02   1.838203426269446e+00  -1.066466629859666e+00  -6.421740645534239e-02
2017-01-01T09:23:30.000  -1.810273833929965e+04  -5.409611261686341e+04   6.321212229255983e+02   1.838592392664315e+00  -1.065305207699023e+00  -6.423102103433667e-02
2017-01-01T09:23:40.000  -1.808435047272610e+04  -5.410675986185868e+04   6.314788447186138e+02   1.838980877264075e+00  -1.064143817081750e+00  -6.424461880150076e-02
2017-01-01T09:23:50.000  -1.806595872387775e+04  -5.411739549301082e+04   6.308363306236835e+02   1.839368880286929e+00  -1.062982457986265e+00  -6.425819976444629e-02
2017-01-01T09:24:00.000  -1.804756309742442e+04  -5.412801951071877e+04   6.301936808037515e+02   1.839756401949825e+00  -1.061821130393729e+00  -6.427176393074098e-02
2017-01-01T09:24:10.000  -1.802916359796960e+04  -5.413863191541882e+04   6.295508954194439e+02   1.840143442470766e+00  -1.060659834281150e+00  -6.428531130798958e-02
2017-01-01T09:24:20.000  -1.801076023034380e+04  -5.414923270741363e+04   6.289079746393188e+02   1.840530002062574e+00  -1.059498569639926e+00  -6.429884190361547e-02
2017-01-01T09:24:30.000  -1.799235299936251e+04  -5.415982188701336e+04   6.282649186314090e+02   1.840916080938050e+00  -1.058337336460545e+00  -6.431235572504131e-02
2017-01-01T09:24:40.000  -1.797394190988028e+04  -5.417039945450427e+04   6.276217275651111e+02   1.841301679308815e+00  -1.057176134735998e+00  -6.432585277964847e-02
2017-01-01T09:24:50.000  -1.795552696677620e+04  -5.418096541015791e+04   6.269784016106811e+02   1.841686797385658e+00  -1.056014964460849e+00  -6.433933307478920e-02
2017-01-01T09:25:00.000  -1.793710817493542e+04  -5.419151975424100e+04   6.263349409385847e+02   1.842071435378890e+00  -1.054853825630084e+00  -6.435279661779918e-02
2017-01-01T09:25:10.000  -1.791868553924248e+04  -5.420206248701926e+04   6.256913457192680e+02   1.842455593498489e+00  -1.053692718238685e+00  -6.436624341600226e-02
2017-01-01T09:25:20.000  -1.790025906451559e+04  -5.421259360879567e+04   6.250476161208596e+02   1.842839271955490e+00  -1.052531642277486e+00  -6.437967347675927e-02
2017-01-01T09:25:30.000  -1.788182875555036e+04  -5.422311311988463e+04   6.244037523106990e+02   1.843222470961041e+00  -1.051370597735935e+00  -6.439308680743526e-02
2017-01-01T09:25:40.000  -1.786339461711991e+04  -5.423362102061222e+04   6.237597544553386e+02   1.843605190726423e+00  -1.050209584602100e+00  -6.440648341539972e-02
2017-01-01T09:25:50.000  -1.784495665393072e+04  -5.424411731134071e+04   6.231156227190037e+02   1.843987431463926e+00  -1.049048602859896e+00  -6.441986330805771e-02
2017-01-01T09:26:00.000  -1.782651487068862e+04  -5.425460199243145e+04   6.224713572658987e+02   1.844369193385514e+00  -1.047887652493244e+00  -6.443322649280261e-02
2017-01-01T09:26:10.000  -1.780806927210559e+04  -5.426507506424097e+04   6.218269582604407e+02   1.844750476702675e+00  -1.046726733486481e+00  -6.444657297701135e-02
2017-01-01T09:26:20.000  -1.778961986291784e+04  -5.427553652711001e+04   6.211824258678931e+02   1.845131281626020e+00  -1.045565845825525e+00  -6.445990276803013e-02
2017-01-01T09:26:30.000  -1.777116664790078e+04  -5.428598638135594e+04   6.205377602548919e+02   1.845511608365012e+00  -1.044404989498800e+00  -6.447321587316504e-02
2017-01-01T09:26:40.000  -1.775270963181475e+04  -5.429642462730315e+04   6.198929615875435e+02   1.845891457129071e+00  -1.043244164493819e+00  -6.448651229972059e-02
2017-01-01T09:26:50.000  -1.773424881964852e+04  -5.430685126514670e+04   6.192480300399366e+02   1.846270828122615e+00  -1.042083370812481e+00  -6.449979205482632e-02
2017-01-01T09:27:00.000  -1.771578421632427e+04  -5.431726629511777e+04   6.186029657838316e+02   1.846649721551084e+00  -1.040922608452534e+00  -6.451305514564738e-02
2017-01-01T09:27:10.000  -1.769731582680719e+04  -5.432766971742199e+04   6.179577689924947e+02   1.847028137618689e+00  -1.039761877414477e+00  -6.452630157930613e-02
2017-01-01T09:27:20.000  -1.767884365568082e+04  -5.433806153247903e+04   6.173124398258559e+02   1.847406076537128e+00  -1.038601177674847e+00  -6.453953136318685e-02
2017-01-01T09:27:30.000  -1.766036770757063e+04  -5.434844174068337e+04   6.166669784453132e+02   1.847783538516892e+00  -1.037440509212863e+00  -6.455274450463175e-02
2017-01-01T09:27:40.000  -1.764188798704815e+04  -5.435881034245897e+04   6.160213850103785e+02   1.848160523769242e+00  -1.036279872004384e+00  -6.456594101100990e-02
2017-01-01T09:27:50.000  -1.762340449886978e+04  -5.436916733812314e+04   6.153756596870222e+02   1.848537032501265e+00  -1.035119266036949e+00  -6.457912088954432e-02
2017-01-01T09:28:00.000  -1.760491724779961e+04  -5.437951272798800e+04   6.147298026414838e+02   1.848913064919562e+00  -1.033958691298611e+00  -6.459228414744109e-02
2017-01-01T09:28:10.000  -1.758642623860923e+04  -5.438984651235980e+04   6.140838140402657e+02   1.849288621230227e+00  -1.032798147777942e+00  -6.460543079188838e-02
